[{"OBJECT_NAME":"STARLINK-32534","OBJECT_ID":"2024-225N","EPOCH":"2026-03-09T15:20:24.560160","MEAN_MOTION":15.00407126,"ECCENTRICITY":0.000941,"INCLINATION":70.0029,"RA_OF_ASC_NODE":164.738,"ARG_OF_PERICENTER":305.672,"MEAN_ANOMALY":54.3563,"EPHEMERIS_TYPE":0,"CLASSIFICATION_TYPE":"U","NORAD_CAT_ID":62175,"ELEMENT_SET_NO":999,"REV_AT_EPOCH":6986,"BSTAR":0.10229,"MEAN_MOTION_DOT":0.0140918,"MEAN_MOTION_DDOT":0},{"OBJECT_NAME":"OBJECT D","OBJECT_ID":"2025-180D","EPOCH":"2026-03-07T14:42:33.383232","MEAN_MOTION":15.14421951,"ECCENTRICITY":0.00131383,"INCLINATION":97.5098,"RA_OF_ASC_NODE":194.941,"ARG_OF_PERICENTER":314.6829,"MEAN_ANOMALY":45.3332,"EPHEMERIS_TYPE":0,"CLASSIFICATION_TYPE":"U","NORAD_CAT_ID":65262,"ELEMENT_SET_NO":999,"REV_AT_EPOCH":3028,"BSTAR":0.00044965302,"MEAN_MOTION_DOT":8.214e-5,"MEAN_MOTION_DDOT":0}]
