STARLINK-32534          
1 62175U 24225N   26068.63917315  .01409180  00000+0  10229+0 0  9998
2 62175  70.0029 164.7380 0009410 305.6720  54.3563 15.00407126 69868
2025-180D               
1 65262U 25180D   26066.61288638  .00008214  00000+0  44965-3 0  9994
2 65262  97.5098 194.9410 0013138 314.6829  45.3332 15.14421951 30284
